ENVISAT                 
1 27386U 02009A   23276.53340670  .00000288  00000+0  10815-3 0  9990
2 27386  98.2446 242.1549 0001239  88.3139  24.3571 14.38416760131530
IDEFIX & ARIANE 42P R/B 
1 27422U 02021B   23276.44399914  .00000634  00000+0  26345-3 0  9990
2 27422  98.4976 214.7275 0010954 285.8846  74.1129 14.29798209115136
AQUA                    
1 27424U 02022A   23276.50081691  .00002004  00000+0  44261-3 0  9990
2 27424  98.2957 220.5980 0001262 108.5228  25.7076 14.58381790139145
CZ-4B R/B               
1 27432U 02024C   23276.35100786  .00000108  00000+0  79330-4 0  9990
2 27432  99.0139 311.9517 0050675  21.8034 349.0215 14.14241744103740
MIDORI II (ADEOS-II)    
1 27597U 02056A   23275.87299593  .00000658  00000+0  28271-3 0  9995
2 27597  98.6569 219.1496 0002127  77.5383 282.6036 14.28019490 83389
H-2A R/B                
1 27601U 02056E   23276.22249509  .00000651  00000+0  24852-3 0  9997
2 27601  98.2028 261.5866 0070417 291.4474  78.7653 14.32481391 86838
CZ-4B R/B               
1 28059U 03049C   23276.52942149  .00000979  00000+0  24336-3 0  9991
2 28059  98.5715 227.2996 0050680  63.1777 297.4588 14.53318682 57497
CZ-2C R/B               
1 28222U 04012C   23275.88867812  .00012783  00000+0  59450-3 0  9996
2 28222  97.8084 273.8319 0037387 225.7285 134.0879 15.19475823 67792
SL-16 R/B               
1 28353U 04021B   23275.81185685  .00000410  00000+0  23892-3 0  9990
2 28353  71.0000 297.5077 0006930 298.1077  61.9344 14.14351750997137
CZ-4B R/B               
1 28415U 04035C   23276.54135360  .00006534  00000+0  37423-3 0  9998
2 28415  97.4588 311.1380 0045732 192.7082 167.3000 15.12054131 44985
CZ-2C R/B               
1 28480U 04046B   23275.84937740  .00000407  00000+0  16931-3 0  9990
2 28480  98.1248 232.9376 0139841 263.5214  95.0030 14.26121020981764
ARIANE 5 R/B            
1 28499U 04049H   23276.12246622  .00001512  00000+0  18706-3 0  9997
2 28499  98.1504  43.8914 0089379 348.1457 184.7005 14.81583962 14072
CZ-2D R/B               
1 28738U 05024B   23276.48983345  .00011810  00000+0  55146-3 0  9997
2 28738  97.3593 275.1706 0009206 343.6600  16.4337 15.19933678  3451
SUZAKU (ASTRO-EII)      
1 28773U 05025A   23276.13756648  .00023768  00000+0  74533-3 0  9999
2 28773  31.3918  71.0505 0003208 128.4224 231.6715 15.31873893  7244
ALOS (DAICHI)           
1 28931U 06002A   23276.48360413  .00002404  00000+0  46194-3 0  9996
2 28931  98.0003 230.8546 0000749  98.6508 261.4780 14.64533653943610
H-2A R/B                
1 28932U 06002B   23276.48649149  .00006500  00000+0  52976-3 0  9999
2 28932  98.2317 349.1512 0079375 336.1364  23.6184 14.97395088960821
RESURS-DK 1             
1 29228U 06021A   23275.64074352  .00003693  00000+0  26354-3 0  9995
2 29228  69.9381   3.8888 0002907  12.3865 347.7368 15.05429203953386
GENESIS 1               
1 29252U 06029A   23276.46133885  .00014334  00000+0  50956-3 0  9997
2 29252  64.5188 309.3818 0010703 213.3334 146.7122 15.29180468951132
CZ-4B R/B               
1 29507U 06046C   23275.79640876  .00005242  00000+0  36705-3 0  9991
2 29507  97.6772 308.4121 0044139  76.7693 283.8451 15.04881676925824
CZ-2C R/B               
1 31114U 07010B   23275.81640166  .00000252  00000+0  13611-3 0  9992
2 31114  98.2964  62.5632 0059542   2.0642 358.0770 14.19627302853576
COSMO-SKYMED 1          
1 31598U 07023A   23276.51583018  .00001109  00000+0  14591-3 0  9992
2 31598  97.8885  98.4300 0001209  98.2416 261.8934 14.82151147883038
GENESIS 2               
1 31789U 07028A   23275.60189948  .00017633  00000+0  62784-3 0  9998
2 31789  64.4950 356.8058 0051699 247.5492 112.0156 15.27791879897800
COSMOS 2428             
1 31792U 07029A   23276.38403305  .00000306  00000+0  19127-3 0  9997
2 31792  70.9290 267.6765 0006855  44.0087 316.1578 14.12569768838714
SL-16 R/B               
1 31793U 07029B   23276.20713483 -.00000185  00000+0 -71297-4 0  9994
2 31793  70.9743 239.6447 0002988 269.9290 183.8429 14.14555636839807
KORONAS-FOTON           
1 33504U 09003A   23276.08343080  .00007927  00000+0  34692-3 0  9994
2 33504  82.4355 103.0451 0018352  68.3482 291.9705 15.21738118809847
CZ-2C R/B               
1 37731U 11030B   23276.49866351  .00003039  00000+0  43238-3 0  9995
2 37731  97.7276 245.5773 0057560 357.6109 113.6989 14.76430308658819
H-2A R/B                
1 38341U 12025E   23276.45606890  .00004177  00000+0  46607-3 0  9991
2 38341  98.4377 166.9689 0051927 323.8919  35.8792 14.86656823615952
CUSAT 2 & FALCON 9 R/B  
1 39271U 13055G   23276.55230209  .00043512 -61872-6  69443-3 0  9997
2 39271  80.9486  23.3125 0406899  72.7550 291.7765 14.94420812526574
SHIJIAN-16 (SJ-16)      
1 39358U 13057A   23276.56515652  .00002126  00000+0  23680-3 0  9991
2 39358  74.9741  60.4456 0017866 100.2408 260.0794 14.87513233539293
CZ-2C R/B               
1 39364U 13059B   23275.87400957  .00043999  00000+0  79976-3 0  9996
2 39364  97.0907 320.6012 0030192  65.2202 295.2185 15.48898463552825
SL-4 R/B                
1 39679U 14021B   23275.47459959  .00008112  00000+0  34256-3 0  9997
2 39679  51.6120 269.2761 0149099 165.7988 194.7247 15.14626271520499
ALOS-2                  
1 39766U 14029A   23276.56429322  .00003751  00000+0  50890-3 0  9990
2 39766  97.9224  11.9044 0001489  98.1715 261.9666 14.79467273505587
SL-27 R/B               
1 40354U 14084B   23276.46488305  .00024957  00000+0  34636-3 0  9992
2 40354  74.7340  43.3807 0025995 344.0657  15.9742 15.56509555494233
YAOGAN-29               
1 41038U 15069A   23276.51439506  .00000930  00000+0  12597-3 0  9998
2 41038  98.0648 284.3856 0001959  39.1794 320.9560 14.81364040424316
ASTRO-H (HITOMI)        
1 41337U 16012A   23276.47521638  .00004346  00000+0  31951-3 0  9992
2 41337  31.0037 292.5617 0011201  94.5648 265.6267 15.01723117418226
HXMT (HUIYAN)           
1 42758U 17034A   23276.46250217  .00009429  00000+0  53168-3 0  9997
2 42758  43.0149 261.5852 0004664 325.0206  35.0333 15.13326303347767
CZ-2C R/B               
1 43521U 18054D   23276.09562172  .00016742  00000+0  69814-3 0  9995
2 43521  35.1511 299.8872 0066860 325.6099  34.0302 15.20785439291466
SAOCOM 1A               
1 43641U 18076A   23276.52422613  .00000954  00000+0  12638-3 0  9995
2 43641  97.8898 101.4584 0001397  88.1220 272.0153 14.82162636269807
H-2A R/B                
1 43682U 18084L   23275.83554712  .00009156  00000+0  55312-3 0  9997
2 43682  98.8852 316.9781 0050249 146.9257 213.5127 15.09910936270456
SAOCOM 1B               
1 46265U 20059A   23276.48794962  .00000976  00000+0  12913-3 0  9998
2 46265  97.8893 100.5057 0001312  86.4840 273.6523 14.82154561167193
CSS (TIANHE)            
1 48274U 21035A   23276.29541506  .00048033  00000+0  50316-3 0  9993
2 48274  41.4732 217.9186 0009661 176.6727 183.4179 15.63524339138736
COSMOS 2550             
1 48865U 21056A   23276.12938935 -.00000114  00000+0  23735-5 0  9996
2 48865  67.1409 208.9875 0008386 269.3417  90.6776 15.33834098127207
2022-019U               
1 51842U 22019U   23276.51331786  .00035047  00000+0  85021-3 0  9995
2 51842  97.5244   5.8447 0047644 315.3228  44.4182 15.39764362 89107
CZ-2C R/B               
1 52794U 22058K   23275.69680091  .00015898  00000+0  72956-3 0  9994
2 52794  50.1721  63.6014 0091783 173.1357 187.0878 15.16812855 73809
CZ-2C R/B               
1 53131U 22082D   23275.79093349  .00053077  00000+0  73506-3 0  9995
2 53131  97.3423 293.3452 0029476 196.8284 163.1996 15.56408830 68477
XRISM                   
1 57800U 23137A   23276.49580345  .00005988  00000+0  48746-3 0  9995
2 57800  31.0030 208.8104 0010233 180.6184 179.4439 14.98074204  3974
